start=new Date('2021-12-07T00:00:00.000Z').valueOf();
sats=[{"OBJECT_NAME":"STARLINK-1932","MEAN_MOTION_DOT":"-0.00000790","NORAD_CAT_ID":"46770","INCLINATION":"53.0542","COUNTRY_CODE":"US","LAUNCH_DATE":"2020-10-24","OBJECT_TYPE":"PAYLOAD","ELEMENT_SET_NO":"999","EPHEMERIS_TYPE":"0","MEAN_MOTION":"15.06391782","TLE_LINE2":"2 46770  53.0542 112.0766 0002186  89.6982 270.4258 15.06391782 62263","MEAN_ELEMENT_THEORY":"SGP4","ECCENTRICITY":"0.00021860","MEAN_ANOMALY":"270.4258","REV_AT_EPOCH":"6226","MEAN_MOTION_DDOT":"0.0000000000000","BSTAR":"-0.00003412400000","REF_FRAME":"TEME","SEMIMAJOR_AXIS":"6925.374","EPOCH":"2021-12-06T20:22:59.837088","FILE":"3234296","CENTER_NAME":"EARTH","RA_OF_ASC_NODE":"112.0766","GP_ID":"191234330","RCS_SIZE":"LARGE","APOAPSIS":"548.753","PERIOD":"95.593","OBJECT_ID":"2020-074AH","SITE":"AFETR","TLE_LINE1":"1 46770U 20074AH  21340.84930367 -.00000790  00000-0 -34124-4 0  9993","CLASSIFICATION_TYPE":"U","TIME_SYSTEM":"UTC","PERIAPSIS":"545.725","ARG_OF_PERICENTER":"89.6982","DECAY_DATE":null},{"APOAPSIS":"548.388","GP_ID":"191235582","RCS_SIZE":"LARGE","PERIOD":"95.592","TLE_LINE1":"1 46772U 20074AK  21340.63645245  .00001214  00000-0  10039-3 0  9998","SITE":"AFETR","OBJECT_ID":"2020-074AK","FILE":"3234296","EPOCH":"2021-12-06T15:16:29.491680","CENTER_NAME":"EARTH","RA_OF_ASC_NODE":"113.0395","PERIAPSIS":"546.027","DECAY_DATE":null,"ARG_OF_PERICENTER":"89.1966","TIME_SYSTEM":"UTC","CLASSIFICATION_TYPE":"U","COUNTRY_CODE":"US","INCLINATION":"53.0541","OBJECT_TYPE":"PAYLOAD","LAUNCH_DATE":"2020-10-24","ELEMENT_SET_NO":"999","EPHEMERIS_TYPE":"0","MEAN_MOTION_DOT":"0.00001214","OBJECT_NAME":"STARLINK-1936","NORAD_CAT_ID":"46772","MEAN_ANOMALY":"270.9219","REV_AT_EPOCH":"6223","MEAN_MOTION_DDOT":"0.0000000000000","SEMIMAJOR_AXIS":"6925.342","REF_FRAME":"TEME","BSTAR":"0.00010039000000","MEAN_ELEMENT_THEORY":"SGP4","MEAN_MOTION":"15.06402027","TLE_LINE2":"2 46772  53.0541 113.0395 0001705  89.1966 270.9219 15.06402027 62230","ECCENTRICITY":"0.00017050"},{"TLE_LINE1":"1 46774U 20074AM  21339.90395817  .00005992  00000-0  39710-3 0  9999","OBJECT_ID":"2020-074AM","SITE":"AFETR","APOAPSIS":"541.505","RCS_SIZE":"LARGE","GP_ID":"191206723","PERIOD":"95.455","RA_OF_ASC_NODE":"114.6661","FILE":"3234035","EPOCH":"2021-12-05T21:41:41.985888","CENTER_NAME":"EARTH","PERIAPSIS":"539.631","ARG_OF_PERICENTER":"108.2681","DECAY_DATE":null,"TIME_SYSTEM":"UTC","CLASSIFICATION_TYPE":"U","ELEMENT_SET_NO":"999","EPHEMERIS_TYPE":"0","INCLINATION":"53.0524","COUNTRY_CODE":"US","OBJECT_TYPE":"PAYLOAD","LAUNCH_DATE":"2020-10-24","NORAD_CAT_ID":"46774","MEAN_MOTION_DOT":"0.00005992","OBJECT_NAME":"STARLINK-1939","SEMIMAJOR_AXIS":"6918.703","REF_FRAME":"TEME","BSTAR":"0.00039710000000","MEAN_ANOMALY":"251.8457","MEAN_MOTION_DDOT":"0.0000000000000","REV_AT_EPOCH":"6215","ECCENTRICITY":"0.00013550","MEAN_ELEMENT_THEORY":"SGP4","MEAN_MOTION":"15.08570912","TLE_LINE2":"2 46774  53.0524 114.6661 0001355 108.2681 251.8457 15.08570912 62158"},{"TLE_LINE1":"1 46775U 20074AN  21340.84777997  .00556125  00000-0  38278-2 0  9994","SITE":"AFETR","OBJECT_ID":"2020-074AN","PERIOD":"91.576","APOAPSIS":"353.875","GP_ID":"191234080","RCS_SIZE":"LARGE","RA_OF_ASC_NODE":"98.3572","CENTER_NAME":"EARTH","FILE":"3234296","EPOCH":"2021-12-06T20:20:48.189408","DECAY_DATE":null,"ARG_OF_PERICENTER":"31.1222","PERIAPSIS":"349.843","TIME_SYSTEM":"UTC","CLASSIFICATION_TYPE":"U","EPHEMERIS_TYPE":"0","ELEMENT_SET_NO":"999","OBJECT_TYPE":"PAYLOAD","LAUNCH_DATE":"2020-10-24","INCLINATION":"53.0560","COUNTRY_CODE":"US","NORAD_CAT_ID":"46775","MEAN_MOTION_DOT":"0.00556125","OBJECT_NAME":"STARLINK-1945","SEMIMAJOR_AXIS":"6729.994","REF_FRAME":"TEME","BSTAR":"0.00382780000000","REV_AT_EPOCH":"6245","MEAN_MOTION_DDOT":"0.0000000000000","MEAN_ANOMALY":"328.9972","ECCENTRICITY":"0.00029950","MEAN_ELEMENT_THEORY":"SGP4","MEAN_MOTION":"15.72464112","TLE_LINE2":"2 46775  53.0560  98.3572 0002995  31.1222 328.9972 15.72464112 62450"},{"ECCENTRICITY":"0.00014500","MEAN_ELEMENT_THEORY":"SGP4","MEAN_MOTION":"15.06392648","TLE_LINE2":"2 46776  53.0545 112.0719 0001450 104.0348 256.0803 15.06392648 62269","SEMIMAJOR_AXIS":"6925.371","BSTAR":"0.00009017700000","REF_FRAME":"TEME","MEAN_MOTION_DDOT":"0.0000000000000","REV_AT_EPOCH":"6226","MEAN_ANOMALY":"256.0803","NORAD_CAT_ID":"46776","MEAN_MOTION_DOT":"0.00001062","OBJECT_NAME":"STARLINK-1946","EPHEMERIS_TYPE":"0","ELEMENT_SET_NO":"999","OBJECT_TYPE":"PAYLOAD","LAUNCH_DATE":"2020-10-24","COUNTRY_CODE":"US","INCLINATION":"53.0545","TIME_SYSTEM":"UTC","CLASSIFICATION_TYPE":"U","ARG_OF_PERICENTER":"104.0348","DECAY_DATE":null,"PERIAPSIS":"546.232","RA_OF_ASC_NODE":"112.0719","CENTER_NAME":"EARTH","FILE":"3234296","EPOCH":"2021-12-06T20:24:20.980512","TLE_LINE1":"1 46776U 20074AP  21340.85024283  .00001062  00000-0  90177-4 0  9992","SITE":"AFETR","OBJECT_ID":"2020-074AP","PERIOD":"95.593","APOAPSIS":"548.240","GP_ID":"191234831","RCS_SIZE":"LARGE"},{"OBJECT_NAME":"STARLINK-1798","MEAN_MOTION_DOT":"0.00000545","NORAD_CAT_ID":"46779","INCLINATION":"53.0551","COUNTRY_CODE":"US","LAUNCH_DATE":"2020-10-24","OBJECT_TYPE":"PAYLOAD","ELEMENT_SET_NO":"999","EPHEMERIS_TYPE":"0","MEAN_MOTION":"15.06399341","TLE_LINE2":"2 46779  53.0551  87.2991 0001374  87.8312 272.2835 15.06399341 62608","MEAN_ELEMENT_THEORY":"SGP4","ECCENTRICITY":"0.00013740","MEAN_ANOMALY":"272.2835","MEAN_MOTION_DDOT":"0.0000000000000","REV_AT_EPOCH":"6260","REF_FRAME":"TEME","BSTAR":"0.00005546500000","SEMIMAJOR_AXIS":"6925.351","EPOCH":"2021-12-06T19:10:41.812320","FILE":"3234296","CENTER_NAME":"EARTH","RA_OF_ASC_NODE":"87.2991","GP_ID":"191235082","RCS_SIZE":"LARGE","APOAPSIS":"548.167","PERIOD":"95.592","OBJECT_ID":"2020-074AS","SITE":"AFETR","TLE_LINE1":"1 46779U 20074AS  21340.79909505  .00000545  00000-0  55465-4 0  9993","CLASSIFICATION_TYPE":"U","TIME_SYSTEM":"UTC","PERIAPSIS":"546.264","ARG_OF_PERICENTER":"87.8312","DECAY_DATE":null},{"NORAD_CAT_ID":"46780","MEAN_MOTION_DOT":"0.00000988","OBJECT_NAME":"STARLINK-1832","EPHEMERIS_TYPE":"0","ELEMENT_SET_NO":"999","OBJECT_TYPE":"PAYLOAD","LAUNCH_DATE":"2020-10-24","COUNTRY_CODE":"US","INCLINATION":"53.0558","ECCENTRICITY":"0.00011460","MEAN_ELEMENT_THEORY":"SGP4","MEAN_MOTION":"15.06397722","TLE_LINE2":"2 46780  53.0558  87.6508 0001146  81.2196 278.8923 15.06397722 62599","SEMIMAJOR_AXIS":"6925.356","BSTAR":"0.00008519600000","REF_FRAME":"TEME","MEAN_MOTION_DDOT":"0.0000000000000","REV_AT_EPOCH":"6259","MEAN_ANOMALY":"278.8923","RA_OF_ASC_NODE":"87.6508","CENTER_NAME":"EARTH","FILE":"3234296","EPOCH":"2021-12-06T17:19:14.349504","TLE_LINE1":"1 46780U 20074AT  21340.72169386  .00000988  00000-0  85196-4 0  9998","OBJECT_ID":"2020-074AT","SITE":"AFETR","PERIOD":"95.592","APOAPSIS":"548.014","RCS_SIZE":"LARGE","GP_ID":"191235833","TIME_SYSTEM":"UTC","CLASSIFICATION_TYPE":"U","ARG_OF_PERICENTER":"81.2196","DECAY_DATE":null,"PERIAPSIS":"546.427"},{"RA_OF_ASC_NODE":"97.2791","CENTER_NAME":"EARTH","EPOCH":"2021-12-06T19:19:59.520864","FILE":"3234296","SITE":"AFETR","OBJECT_ID":"2020-074AU","TLE_LINE1":"1 46781U 20074AU  21340.80555001 -.00000077  00000-0  13715-4 0  9999","PERIOD":"95.592","RCS_SIZE":"LARGE","GP_ID":"191234581","APOAPSIS":"548.120","CLASSIFICATION_TYPE":"U","TIME_SYSTEM":"UTC","ARG_OF_PERICENTER":"95.6060","DECAY_DATE":null,"PERIAPSIS":"546.336","NORAD_CAT_ID":"46781","OBJECT_NAME":"STARLINK-1834","MEAN_MOTION_DOT":"-0.00000077","EPHEMERIS_TYPE":"0","ELEMENT_SET_NO":"999","LAUNCH_DATE":"2020-10-24","OBJECT_TYPE":"PAYLOAD","INCLINATION":"53.0546","COUNTRY_CODE":"US","ECCENTRICITY":"0.00012880","MEAN_MOTION":"15.06395207","TLE_LINE2":"2 46781  53.0546  97.2791 0001288  95.6060 264.5076 15.06395207 62478","MEAN_ELEMENT_THEORY":"SGP4","BSTAR":"0.00001371500000","REF_FRAME":"TEME","SEMIMAJOR_AXIS":"6925.363","REV_AT_EPOCH":"6247","MEAN_MOTION_DDOT":"0.0000000000000","MEAN_ANOMALY":"264.5076"},{"ARG_OF_PERICENTER":"90.5838","DECAY_DATE":null,"PERIAPSIS":"546.280","TIME_SYSTEM":"UTC","CLASSIFICATION_TYPE":"U","TLE_LINE1":"1 46782U 20074AV  21340.71064285 -.00000417  00000-0 -90858-5 0  9992","OBJECT_ID":"2020-074AV","SITE":"AFETR","PERIOD":"95.593","APOAPSIS":"548.202","GP_ID":"191234331","RCS_SIZE":"LARGE","RA_OF_ASC_NODE":"87.7001","CENTER_NAME":"EARTH","FILE":"3234296","EPOCH":"2021-12-06T17:03:19.542240","SEMIMAJOR_AXIS":"6925.376","BSTAR":"-0.00000908580000","REF_FRAME":"TEME","REV_AT_EPOCH":"6259","MEAN_MOTION_DDOT":"0.0000000000000","MEAN_ANOMALY":"269.5310","ECCENTRICITY":"0.00013880","MEAN_ELEMENT_THEORY":"SGP4","TLE_LINE2":"2 46782  53.0529  87.7001 0001388  90.5838 269.5310 15.06391047 62593","MEAN_MOTION":"15.06391047","EPHEMERIS_TYPE":"0","ELEMENT_SET_NO":"999","OBJECT_TYPE":"PAYLOAD","LAUNCH_DATE":"2020-10-24","INCLINATION":"53.0529","COUNTRY_CODE":"US","NORAD_CAT_ID":"46782","MEAN_MOTION_DOT":"-0.00000417","OBJECT_NAME":"STARLINK-1835"},{"ECCENTRICITY":"0.00012600","MEAN_ELEMENT_THEORY":"SGP4","TLE_LINE2":"2 46783  53.0571  86.7446 0001260  89.2607 270.8527 15.06397973 62624","MEAN_MOTION":"15.06397973","SEMIMAJOR_AXIS":"6925.355","REF_FRAME":"TEME","BSTAR":"0.00000620850000","MEAN_ANOMALY":"270.8527","MEAN_MOTION_DDOT":"0.0000000000000","REV_AT_EPOCH":"6262","NORAD_CAT_ID":"46783","MEAN_MOTION_DOT":"-0.00000189","OBJECT_NAME":"STARLINK-1851","ELEMENT_SET_NO":"999","EPHEMERIS_TYPE":"0","INCLINATION":"53.0571","COUNTRY_CODE":"US","OBJECT_TYPE":"PAYLOAD","LAUNCH_DATE":"2020-10-24","TIME_SYSTEM":"UTC","CLASSIFICATION_TYPE":"U","PERIAPSIS":"546.347","ARG_OF_PERICENTER":"89.2607","DECAY_DATE":null,"RA_OF_ASC_NODE":"86.7446","FILE":"3234296","EPOCH":"2021-12-06T22:11:09.704832","CENTER_NAME":"EARTH","TLE_LINE1":"1 46783U 20074AW  21340.92441788 -.00000189  00000-0  62085-5 0  9999","SITE":"AFETR","OBJECT_ID":"2020-074AW","APOAPSIS":"548.092","GP_ID":"191235583","RCS_SIZE":"LARGE","PERIOD":"95.592"}];
